{
  "type": "FeatureCollection",
  "features": [
    {
      "type": "Feature",
      "properties": {
        "norad_id": 35015,
        "name": "COSMOS 2251 DEB",
        "group": "cosmos-2251-debris",
        "lat": -42.52316662132551,
        "lon": -164.52838026792432,
        "alt_km": 768.8268357806155,
        "timestamp": "2025-12-25T11:37:44.835211+00:00",
        "meta_object_name": "COSMOS 2251 DEB",
        "meta_object_id": "1993-036AGC",
        "meta_epoch": "2025-12-24T20:59:07.900800",
        "meta_mean_motion": 14.46938139,
        "meta_eccentricity": 0.0074531,
        "meta_inclination": 73.9465,
        "meta_ra_of_asc_node": 211.9291,
        "meta_arg_of_pericenter": 77.5315,
        "meta_mean_anomaly": 301.6184,
        "meta_ephemeris_type": 0,
        "meta_classification_type": "U",
        "meta_norad_cat_id": 35015,
        "meta_element_set_no": 999,
        "meta_rev_at_epoch": 65616,
        "meta_bstar": 0.00073268,
        "meta_mean_motion_dot": 2.728e-05,
        "meta_mean_motion_ddot": 0,
        "tle_line1": "1 35015U 93036AGC 25358.87439700  .00002728  00000+0  73268-3 0  9993",
        "tle_line2": "2 35015  73.9465 211.9291 0074531  77.5315 301.6184 14.46938139656168"
      },
      "geometry": {
        "type": "Point",
        "coordinates": [
          -164.52838026792432,
          -42.52316662132551
        ]
      }
    },
    {
      "type": "Feature",
      "properties": {
        "norad_id": 35016,
        "name": "COSMOS 2251 DEB",
        "group": "cosmos-2251-debris",
        "lat": 24.008943970883795,
        "lon": 83.53012374776277,
        "alt_km": 703.1686267888881,
        "timestamp": "2025-12-25T11:37:44.835221+00:00",
        "meta_object_name": "COSMOS 2251 DEB",
        "meta_object_id": "1993-036AGD",
        "meta_epoch": "2025-12-21T05:33:15.838848",
        "meta_mean_motion": 14.35075882,
        "meta_eccentricity": 0.01140745,
        "meta_inclination": 73.9302,
        "meta_ra_of_asc_node": 278.7521,
        "meta_arg_of_pericenter": 193.9283,
        "meta_mean_anomaly": 317.5381,
        "meta_ephemeris_type": 0,
        "meta_classification_type": "U",
        "meta_norad_cat_id": 35016,
        "meta_element_set_no": 999,
        "meta_rev_at_epoch": 86904,
        "meta_bstar": 0.00026149228,
        "meta_mean_motion_dot": 7.75e-06,
        "meta_mean_motion_ddot": 0,
        "tle_line1": "1 35016U 93036AGD 25355.23143332  .00000775  00000+0  26149-3 0  9990",
        "tle_line2": "2 35016  73.9302 278.7521 0114074 193.9283 317.5381 14.35075882869043"
      },
      "geometry": {
        "type": "Point",
        "coordinates": [
          83.53012374776277,
          24.008943970883795
        ]
      }
    },
    {
      "type": "Feature",
      "properties": {
        "norad_id": 35018,
        "name": "COSMOS 2251 DEB",
        "group": "cosmos-2251-debris",
        "lat": 21.33643519681234,
        "lon": 95.43905807912338,
        "alt_km": 777.5106993899853,
        "timestamp": "2025-12-25T11:37:44.835231+00:00",
        "meta_object_name": "COSMOS 2251 DEB",
        "meta_object_id": "1993-036AGF",
        "meta_epoch": "2025-12-24T16:12:38.101536",
        "meta_mean_motion": 13.67138502,
        "meta_eccentricity": 0.03490652,
        "meta_inclination": 73.9764,
        "meta_ra_of_asc_node": 90.3261,
        "meta_arg_of_pericenter": 356.917,
        "meta_mean_anomaly": 2.9788,
        "meta_ephemeris_type": 0,
        "meta_classification_type": "U",
        "meta_norad_cat_id": 35018,
        "meta_element_set_no": 999,
        "meta_rev_at_epoch": 83349,
        "meta_bstar": 0.00085132295,
        "meta_mean_motion_dot": 1.064e-05,
        "meta_mean_motion_ddot": 0,
        "tle_line1": "1 35018U 93036AGF 25358.67544099  .00001064  00000+0  85132-3 0  9997",
        "tle_line2": "2 35018  73.9764  90.3261 0349065 356.9170   2.9788 13.67138502833491"
      },
      "geometry": {
        "type": "Point",
        "coordinates": [
          95.43905807912338,
          21.33643519681234
        ]
      }
    },
    {
      "type": "Feature",
      "properties": {
        "norad_id": 35020,
        "name": "COSMOS 2251 DEB",
        "group": "cosmos-2251-debris",
        "lat": 72.57349552035437,
        "lon": -119.7657066394555,
        "alt_km": 736.1247769888423,
        "timestamp": "2025-12-25T11:37:44.835241+00:00",
        "meta_object_name": "COSMOS 2251 DEB",
        "meta_object_id": "1993-036AGH",
        "meta_epoch": "2025-12-23T11:39:00.022752",
        "meta_mean_motion": 14.62820598,
        "meta_eccentricity": 0.00912637,
        "meta_inclination": 74.045,
        "meta_ra_of_asc_node": 178.3606,
        "meta_arg_of_pericenter": 289.9711,
        "meta_mean_anomaly": 69.1644,
        "meta_ephemeris_type": 0,
        "meta_classification_type": "U",
        "meta_norad_cat_id": 35020,
        "meta_element_set_no": 999,
        "meta_rev_at_epoch": 88395,
        "meta_bstar": 0.00013387504,
        "meta_mean_motion_dot": 6.91e-06,
        "meta_mean_motion_ddot": 0,
        "tle_line1": "1 35020U 93036AGH 25357.48541693  .00000691  00000+0  13388-3 0  9994",
        "tle_line2": "2 35020  74.0450 178.3606 0091263 289.9711  69.1644 14.62820598883959"
      },
      "geometry": {
        "type": "Point",
        "coordinates": [
          -119.7657066394555,
          72.57349552035437
        ]
      }
    },
    {
      "type": "Feature",
      "properties": {
        "norad_id": 35022,
        "name": "COSMOS 2251 DEB",
        "group": "cosmos-2251-debris",
        "lat": 41.87645266064289,
        "lon": -47.55729609395194,
        "alt_km": 686.0979494564845,
        "timestamp": "2025-12-25T11:37:44.835251+00:00",
        "meta_object_name": "COSMOS 2251 DEB",
        "meta_object_id": "1993-036AGK",
        "meta_epoch": "2025-12-23T05:11:29.419872",
        "meta_mean_motion": 14.6087455,
        "meta_eccentricity": 0.00462541,
        "meta_inclination": 74.028,
        "meta_ra_of_asc_node": 301.8992,
        "meta_arg_of_pericenter": 138.376,
        "meta_mean_anomaly": 222.0943,
        "meta_ephemeris_type": 0,
        "meta_classification_type": "U",
        "meta_norad_cat_id": 35022,
        "meta_element_set_no": 999,
        "meta_rev_at_epoch": 59296,
        "meta_bstar": 0.00044697282,
        "meta_mean_motion_dot": 2.19e-05,
        "meta_mean_motion_ddot": 0,
        "tle_line1": "1 35022U 93036AGK 25357.21631273  .00002190  00000+0  44697-3 0  9994",
        "tle_line2": "2 35022  74.0280 301.8992 0046254 138.3760 222.0943 14.60874550592969"
      },
      "geometry": {
        "type": "Point",
        "coordinates": [
          -47.55729609395194,
          41.87645266064289
        ]
      }
    },
    {
      "type": "Feature",
      "properties": {
        "norad_id": 35023,
        "name": "COSMOS 2251 DEB",
        "group": "cosmos-2251-debris",
        "lat": -2.175188598192739,
        "lon": -173.74656755062534,
        "alt_km": 585.8025585589658,
        "timestamp": "2025-12-25T11:37:44.835261+00:00",
        "meta_object_name": "COSMOS 2251 DEB",
        "meta_object_id": "1993-036AGL",
        "meta_epoch": "2025-12-24T23:28:31.270080",
        "meta_mean_motion": 14.95460921,
        "meta_eccentricity": 0.0033556,
        "meta_inclination": 74.0363,
        "meta_ra_of_asc_node": 187.8979,
        "meta_arg_of_pericenter": 264.0203,
        "meta_mean_anomaly": 248.2711,
        "meta_ephemeris_type": 0,
        "meta_classification_type": "U",
        "meta_norad_cat_id": 35023,
        "meta_element_set_no": 999,
        "meta_rev_at_epoch": 88462,
        "meta_bstar": 0.0015897,
        "meta_mean_motion_dot": 0.00017796,
        "meta_mean_motion_ddot": 0,
        "tle_line1": "1 35023U 93036AGL 25358.97813970  .00017796  00000+0  15897-2 0  9992",
        "tle_line2": "2 35023  74.0363 187.8979 0033556 264.0203 248.2711 14.95460921884620"
      },
      "geometry": {
        "type": "Point",
        "coordinates": [
          -173.74656755062534,
          -2.175188598192739
        ]
      }
    },
    {
      "type": "Feature",
      "properties": {
        "norad_id": 35025,
        "name": "COSMOS 2251 DEB",
        "group": "cosmos-2251-debris",
        "lat": 57.13816731255255,
        "lon": -168.52979818960256,
        "alt_km": 705.8588607889906,
        "timestamp": "2025-12-25T11:37:44.835271+00:00",
        "meta_object_name": "COSMOS 2251 DEB",
        "meta_object_id": "1993-036AGN",
        "meta_epoch": "2025-12-24T02:28:58.594944",
        "meta_mean_motion": 14.7276366,
        "meta_eccentricity": 0.00856656,
        "meta_inclination": 73.9377,
        "meta_ra_of_asc_node": 40.6629,
        "meta_arg_of_pericenter": 311.0935,
        "meta_mean_anomaly": 48.2859,
        "meta_ephemeris_type": 0,
        "meta_classification_type": "U",
        "meta_norad_cat_id": 35025,
        "meta_element_set_no": 999,
        "meta_rev_at_epoch": 88810,
        "meta_bstar": 0.00042526894,
        "meta_mean_motion_dot": 2.843e-05,
        "meta_mean_motion_ddot": 0,
        "tle_line1": "1 35025U 93036AGN 25358.10345596  .00002843  00000+0  42527-3 0  9991",
        "tle_line2": "2 35025  73.9377  40.6629 0085665 311.0935  48.2859 14.72763660888105"
      },
      "geometry": {
        "type": "Point",
        "coordinates": [
          -168.52979818960256,
          57.13816731255255
        ]
      }
    }
  ]
}